*******************************************************************************
Ephemeris / PORT_LOGIN Sun Nov 27 10:13:35 2011 Pasadena, USA    / Horizons    
*******************************************************************************
Target body name: Pasiphae (508)                  {source: JUP282}
Center body name: Solar System Barycenter (0)     {source: DE405}
Center-site name: BODY CENTER
*******************************************************************************
Start time      : A.D. 2001-Jan-01 10:00:00.0000 CT 
Stop  time      : A.D. 2001-Jan-02 00:00:00.0000 CT 
Step-size       : 60 minutes
*******************************************************************************
Center geodetic : 0.00000000,0.00000000,0.0000000 {E-lon(deg),Lat(deg),Alt(km)}
Center cylindric: 0.00000000,0.00000000,0.0000000 {E-lon(deg),Dxy(km),Dz(km)}
Center radii    : (undefined)                                                  
Output units    : AU-D                                                         
Output format   : 03
Reference frame : ICRF/J2000.0                                                 
Output type     : GEOMETRIC cartesian states
Coordinate systm: Earth Mean Equator and Equinox of Reference Epoch            
*******************************************************************************
JDCT 
   X     Y     Z
   VX    VY    VZ
   LT    RG    RR
*******************************************************************************
$$SOE
2451910.916666667 = A.D. 2001-Jan-01 10:00:00.0000 (CT)
   1.949220701821959E+00  4.397769442804691E+00  1.742086408298820E+00
  -6.478829166240816E-03  1.849264235762299E-03  1.219519084369621E-03
   2.954825535175904E-02  5.116121819352766E+00 -4.635391120253219E-04
2451910.958333333 = A.D. 2001-Jan-01 11:00:00.0000 (CT)
   1.948950740683545E+00  4.397846485076895E+00  1.742137221251782E+00
  -6.479305469543831E-03  1.848764843575740E-03  1.219502652114915E-03
   2.954814377422079E-02  5.116102500300890E+00 -4.637753569489450E-04
2451911.000000000 = A.D. 2001-Jan-01 12:00:00.0000 (CT)
   1.948680759700169E+00  4.397923506542784E+00  1.742188033519354E+00
  -6.479781724494265E-03  1.848265532639451E-03  1.219486185647999E-03
   2.954803213984620E-02  5.116083171408107E+00 -4.640114755834608E-04
2451911.041666667 = A.D. 2001-Jan-01 13:00:00.0000 (CT)
   1.948410758873843E+00  4.398000507205743E+00  1.742238845100111E+00
  -6.480257931088801E-03  1.847766302908046E-03  1.219469684974057E-03
   2.954792044866567E-02  5.116063832679679E+00 -4.642474679593410E-04
2451911.083333333 = A.D. 2001-Jan-01 14:00:00.0000 (CT)
   1.948140738206583E+00  4.398077487069153E+00  1.742289655992627E+00
  -6.480734089324128E-03  1.847267154336178E-03  1.219453150098287E-03
   2.954780870070954E-02  5.116044484120863E+00 -4.644833341070339E-04
2451911.125000000 = A.D. 2001-Jan-01 15:00:00.0000 (CT)
   1.947870697700404E+00  4.398154446136397E+00  1.742340466195478E+00
  -6.481210199196966E-03  1.846768086878533E-03  1.219436581025900E-03
   2.954769689600823E-02  5.116025125736922E+00 -4.647190740569703E-04
2451911.166666667 = A.D. 2001-Jan-01 16:00:00.0000 (CT)
   1.947600637357321E+00  4.398231384410852E+00  1.742391275707238E+00
  -6.481686260704054E-03  1.846269100489829E-03  1.219419977762120E-03
   2.954758503459208E-02  5.116005757533111E+00 -4.649546878395637E-04
2451911.208333333 = A.D. 2001-Jan-01 17:00:00.0000 (CT)
   1.947330557179350E+00  4.398308301895897E+00  1.742442084526483E+00
  -6.482162273842150E-03  1.845770195124822E-03  1.219403340312181E-03
   2.954747311649146E-02  5.115986379514688E+00 -4.651901754852083E-04
2451911.250000000 = A.D. 2001-Jan-01 18:00:00.0000 (CT)
   1.947060457168506E+00  4.398385198594904E+00  1.742492892651789E+00
  -6.482638238608032E-03  1.845271370738301E-03  1.219386668681331E-03
   2.954736114173670E-02  5.115966991686905E+00 -4.654255370242788E-04
2451911.291666667 = A.D. 2001-Jan-01 19:00:00.0000 (CT)
   1.946790337326805E+00  4.398462074511249E+00  1.742543700081732E+00
  -6.483114154998501E-03  1.844772627285091E-03  1.219369962874828E-03
   2.954724911035816E-02  5.115947594055021E+00 -4.656607724871310E-04
2451911.333333333 = A.D. 2001-Jan-01 20:00:00.0000 (CT)
   1.946520197656262E+00  4.398538929648301E+00  1.742594506814887E+00
  -6.483590023010373E-03  1.844273964720051E-03  1.219353222897940E-03
   2.954713702238618E-02  5.115928186624282E+00 -4.658958819041031E-04
2451911.375000000 = A.D. 2001-Jan-01 21:00:00.0000 (CT)
   1.946250038158893E+00  4.398615764009432E+00  1.742645312849832E+00
  -6.484065842640485E-03  1.843775382998076E-03  1.219336448755944E-03
   2.954702487785108E-02  5.115908769399946E+00 -4.661308653055104E-04
2451911.416666667 = A.D. 2001-Jan-01 22:00:00.0000 (CT)
   1.945979858836714E+00  4.398692577598007E+00  1.742696118185142E+00
  -6.484541613885695E-03  1.843276882074096E-03  1.219319640454128E-03
   2.954691267678319E-02  5.115889342387257E+00 -4.663657227216549E-04
2451911.458333333 = A.D. 2001-Jan-01 23:00:00.0000 (CT)
   1.945709659691741E+00  4.398769370417393E+00  1.742746922819396E+00
  -6.485017336742871E-03  1.842778461903077E-03  1.219302797997789E-03
   2.954680041921280E-02  5.115869905591468E+00 -4.666004541828120E-04
2451911.500000000 = A.D. 2001-Jan-02 00:00:00.0000 (CT)
   1.945439440725991E+00  4.398846142470953E+00  1.742797726751168E+00
  -6.485493011208906E-03  1.842280122440019E-03  1.219285921392227E-03
   2.954668810517025E-02  5.115850459017824E+00 -4.668350597192439E-04
$$EOE
*******************************************************************************
Coordinate system description:

  Earth Mean Equator and Equinox of Reference Epoch

    Reference epoch: J2000.0
    xy-plane: plane of the Earth's mean equator at the reference epoch
    x-axis  : out along ascending node of instantaneous plane of the Earth's
              orbit and the Earth's mean equator at the reference epoch
    z-axis  : along the Earth mean north pole at the reference epoch

Symbol meaning [1 AU=149597870.691 km, 1 day=86400.0 s]:

    JDCT     Epoch Julian Date, Coordinate Time
      X      x-component of position vector (AU)                               
      Y      y-component of position vector (AU)                               
      Z      z-component of position vector (AU)                               
      VX     x-component of velocity vector (AU/day)                           
      VY     y-component of velocity vector (AU/day)                           
      VZ     z-component of velocity vector (AU/day)                           
      LT     One-way down-leg Newtonian light-time (day)                       
      RG     Range; distance from coordinate center (AU)                       
      RR     Range-rate; radial velocity wrt coord. center (AU/day)            

Geometric states/elements have no aberration corrections applied.

 Computations by ...
     Solar System Dynamics Group, Horizons On-Line Ephemeris System
     4800 Oak Grove Drive, Jet Propulsion Laboratory
     Pasadena, CA  91109   USA
     Information: http://ssd.jpl.nasa.gov/
     Connect    : telnet://ssd.jpl.nasa.gov:6775  (via browser)
                  telnet ssd.jpl.nasa.gov 6775    (via command-line)
     Author     : Jon.Giorgini@jpl.nasa.gov
*******************************************************************************
